[{"OBJECT_NAME":"OBJECT A","OBJECT_ID":"2023-104A","EPOCH":"2026-03-06T18:47:13.750656","MEAN_MOTION":15.33350758,"ECCENTRICITY":0.00093331,"INCLINATION":97.2792,"RA_OF_ASC_NODE":135.5625,"ARG_OF_PERICENTER":122.1915,"MEAN_ANOMALY":238.0234,"EPHEMERIS_TYPE":0,"CLASSIFICATION_TYPE":"U","NORAD_CAT_ID":57424,"ELEMENT_SET_NO":999,"REV_AT_EPOCH":14634,"BSTAR":0.00048200218,"MEAN_MOTION_DOT":0.00015492,"MEAN_MOTION_DDOT":0},{"OBJECT_NAME":"STARLINK-35107","OBJECT_ID":"2025-195G","EPOCH":"2026-03-09T17:20:09.242016","MEAN_MOTION":15.30212768,"ECCENTRICITY":8.924e-5,"INCLINATION":53.1598,"RA_OF_ASC_NODE":257.68,"ARG_OF_PERICENTER":152.0857,"MEAN_ANOMALY":208.0192,"EPHEMERIS_TYPE":0,"CLASSIFICATION_TYPE":"U","NORAD_CAT_ID":65464,"ELEMENT_SET_NO":999,"REV_AT_EPOCH":3000,"BSTAR":0.0011506121,"MEAN_MOTION_DOT":0.00033888,"MEAN_MOTION_DDOT":0}]
