2023-104A               
1 57424U 23104A   26065.78279804  .00015492  00000+0  48200-3 0  9993
2 57424  97.2792 135.5625 0009333 122.1915 238.0234 15.33350758146346
STARLINK-35107          
1 65464U 25195G   26068.72232919  .00033888  00000+0  11506-2 0  9998
2 65464  53.1598 257.6800 0000892 152.0857 208.0192 15.30212768 30003
